IRIDIUM 26              
1 24903U 97043A   25332.63617702  .00000429  00000+0  13728-3 0  9996
2 24903  86.3974  41.4897 0001972  96.4189 263.7233 14.37310727480368
IRIDIUM 22              
1 24907U 97043E   25332.63301868  .00000390  00000+0  12718-3 0  9998
2 24907  86.3977  45.1720 0002149  98.1678 261.9762 14.36106170480372
DUMMY MASS 1            
1 24925U 97048A   25332.27186290  .00000525  00000+0  55298-4 0  9994
2 24925  86.3353  59.4004 0004350 292.2781  67.7982 14.87162798529511
DUMMY MASS 2            
1 24926U 97048B   25332.53060536  .00000507  00000+0  53660-4 0  9999
2 24926  86.3354  60.9191 0005334 306.7034  53.3701 14.86913587529320
IRIDIUM 29              
1 24944U 97051A   25332.80537814  .00000495  00000+0  16173-3 0  9994
2 24944  86.3954  74.7935 0002281  95.9887 264.1570 14.36642853476907
IRIDIUM 33              
1 24946U 97051C   25332.76067824  .00000386  00000+0  12864-3 0  9992
2 24946  86.3869  74.0885 0005847 256.2900 103.7645 14.35020975476343
IRIDIUM 28              
1 24948U 97051E   25332.53588465  .00000477  00000+0  15253-3 0  9994
2 24948  86.3960  72.3279 0001564  98.8668 261.2707 14.37543240477457
IRIDIUM 36              
1 24967U 97056C   25332.61275300  .00000478  00000+0  15240-3 0  9997
2 24967  86.3949 103.9244 0001936  99.2688 260.8729 14.37763165475848
